STARLINK-31496          
1 59211U 24046L   26068.46451435 -.00000153  00000+0  69601-5 0  9994
2 59211  53.1612 143.7061 0001181 111.8504 248.2622 15.30184886113185
KUIPER-00222            
1 67782U 26030U   26068.67636257  .00055223  00000+0  17317-2 0  9992
2 67782  51.8817 219.7147 0012800  40.1845 320.0084 15.32445377  5087
