[{"OBJECT_NAME":"STARLINK-31496","OBJECT_ID":"2024-046L","EPOCH":"2026-03-09T11:08:54.039840","MEAN_MOTION":15.30184886,"ECCENTRICITY":0.00011813,"INCLINATION":53.1612,"RA_OF_ASC_NODE":143.7061,"ARG_OF_PERICENTER":111.8504,"MEAN_ANOMALY":248.2622,"EPHEMERIS_TYPE":0,"CLASSIFICATION_TYPE":"U","NORAD_CAT_ID":59211,"ELEMENT_SET_NO":999,"REV_AT_EPOCH":11318,"BSTAR":6.960071e-6,"MEAN_MOTION_DOT":-1.53e-6,"MEAN_MOTION_DDOT":0},{"OBJECT_NAME":"KUIPER-00222","OBJECT_ID":"2026-030U","EPOCH":"2026-03-09T16:13:57.726048","MEAN_MOTION":15.32445377,"ECCENTRICITY":0.00128002,"INCLINATION":51.8817,"RA_OF_ASC_NODE":219.7147,"ARG_OF_PERICENTER":40.1845,"MEAN_ANOMALY":320.0084,"EPHEMERIS_TYPE":0,"CLASSIFICATION_TYPE":"U","NORAD_CAT_ID":67782,"ELEMENT_SET_NO":999,"REV_AT_EPOCH":508,"BSTAR":0.0017317201,"MEAN_MOTION_DOT":0.00055223,"MEAN_MOTION_DDOT":0}]
